0 COSMOS 1928
1 18941U 88016E   13281.49300697  .00000015  00000-0  19642-3 0  3433
2 18941 074.0034 284.0095 0010883 008.2079 156.2230 12.52824018169982
0 COSMOS 1928
1 18941U 88016E   13283.71737538  .00000015  00000-0  19538-3 0  3443
2 18941 074.0033 281.0329 0010934 004.8873 108.4619 12.52824289170262
0 COSMOS 1928
1 18941U 88016E   13285.85907081 -.00000012  00000-0  27314-4 0  3453
2 18941 074.0034 278.1670 0010962 001.6758 047.8482 12.52824667170531
0 COSMOS 1928
1 18941U 88016E   13288.01627449 -.00000038  00000-0 -13612-3 0  3466
2 18941 074.0037 275.2801 0010993 358.4720 057.1503 12.52824854170800
0 COSMOS 1928
1 18941U 88016E   13290.33441174 -.00000022  00000-0 -39065-4 0  3478
2 18941 074.0042 272.1780 0011046 355.0838 072.2345 12.52824570171090
0 COSMOS 1928
1 18941U 88016E   13292.43314361  .00000006  00000-0  14020-3 0  3482
2 18941 074.0045 269.3697 0011090 352.0197 177.7688 12.52824400171354
0 COSMOS 1928
1 18941U 88016E   13294.80121959  .00000024  00000-0  25535-3 0  3498
2 18941 074.0046 266.2012 0011143 348.6272 058.0113 12.52824395171656
